NORAD_CAT_ID,OBJECT_NAME,OBJECT_TYPE,EPOCH,MEAN_MOTION,ECCENTRICITY,INCLINATION,RA_OF_ASC_NODE,ARG_OF_PERICENTER,MEAN_ANOMALY,BSTAR,MEAN_MOTION_DOT,MEAN_MOTION_DDOT,TLE_LINE0,TLE_LINE1,TLE_LINE2,SEMIMAJOR_AXIS,PERIOD,APOGEE,PERIGEE,DECAYED
53794.0,STARLINK-4730,PAYLOAD,2023-02-07 23:12:23,15.08855328,9.78e-05,53.2168,287.4463,86.0437,274.0667,0.0004905,7.53e-05,0.0,0 STARLINK-4730,1 53794U 22111X   23038.96693512  .00007530  00000-0  49050-3 0  9998,2 53794  53.2168 287.4463 0000978  86.0437 274.0667 15.08855328 22945,6917.834,95.437,540.375,539.022,0.0
53794.0,STARLINK-4730,PAYLOAD,2023-02-08 19:52:24,15.08839465,0.000114,53.2174,283.5791,117.0485,243.0623,0.00050705,7.791e-05,0.0,0 STARLINK-4730,1 53794U 22111X   23039.82805873  .00007791  00000-0  50705-3 0  9997,2 53794  53.2174 283.5791 0001140 117.0485 243.0623 15.08839465 23070,6917.882,95.438,540.536,538.958,0.0
53794.0,STARLINK-4730,PAYLOAD,2023-02-08 21:27:47,15.08842494,0.0001039,53.2174,283.282,112.4952,247.615,0.00060888,9.416e-05,0.0,0 STARLINK-4730,1 53794U 22111X   23039.89429883  .00009416  00000-0  60888-3 0  9996,2 53794  53.2174 283.2820 0001039 112.4952 247.6150 15.08842494 23885,6917.873,95.437,540.457,539.019,0.0
53794.0,STARLINK-4730,PAYLOAD,2023-02-09 02:13:56,15.08854451,8.38e-05,53.2173,282.3909,103.5723,256.5363,0.0015849,0.00025036,0.0,0 STARLINK-4730,1 53794U 22111X   23040.09301828  .00025036  00000-0  15849-2 0  9990,2 53794  53.2173 282.3909 0000838 103.5723 256.5363 15.08854451 23910,6917.836,95.437,540.281,539.122,0.0
53794.0,STARLINK-4730,PAYLOAD,2023-02-09 19:43:11,15.08846552,6.86e-05,53.2165,279.1205,122.7089,237.3969,0.0015499,0.00024469,0.0,0 STARLINK-4730,1 53794U 22111X   23040.82166366  .00024469  00000-0  15499-2 0  9997,2 53794  53.2165 279.1205 0000686 122.7089 237.3969 15.08846552 23229,6917.86,95.437,540.2,539.251,0.0
53794.0,STARLINK-4730,PAYLOAD,2023-02-10 02:04:44,15.08849054,7.2e-05,53.2166,277.9291,82.8466,277.2608,0.00084599,0.00013205,0.0,0 STARLINK-4730,1 53794U 22111X   23041.08662348  .00013205  00000-0  84599-3 0  9991,2 53794  53.2166 277.9291 0000720  82.8466 277.2608 15.08849054 24061,6917.853,95.437,540.216,539.22,0.0
53794.0,STARLINK-4730,PAYLOAD,2023-02-10 22:44:45,15.08847478,7.68e-05,53.2167,274.0633,67.7679,292.3394,0.00040353,6.142e-05,0.0,0 STARLINK-4730,1 53794U 22111X   23041.94774370  .00006142  00000-0  40353-3 0  9997,2 53794  53.2167 274.0633 0000768  67.7679 292.3394 15.08847478 23393,6917.858,95.437,540.254,539.191,0.0
53794.0,STARLINK-4730,PAYLOAD,2023-02-12 08:07:52,15.08808683,0.0001359,53.216,267.8179,82.6491,277.4656,-0.00042738,-7.077e-05,0.0,0 STARLINK-4730,1 53794U 22111X   23043.33880497 -.00007077  00000-0 -42738-3 0  9999,2 53794  53.2160 267.8179 0001359  82.6491 277.4656 15.08808683 23600,6917.976,95.44,540.781,538.901,0.0
53794.0,STARLINK-4730,PAYLOAD,2023-02-13 00:01:44,15.08831443,0.0001751,53.2174,264.8455,64.1539,295.9633,0.00013182,1.81e-05,0.0,0 STARLINK-4730,1 53794U 22111X   23044.00120636  .00001810  00000-0  13182-3 0  9994,2 53794  53.2174 264.8455 0001751  64.1539 295.9633 15.08831443 23704,6917.907,95.438,540.983,538.56,0.0
53794.0,STARLINK-4730,PAYLOAD,2023-02-13 14:20:10,15.08868539,7.21e-05,53.2168,262.169,89.5633,270.5442,0.00069154,0.00010744,0.0,0 STARLINK-4730,1 53794U 22111X   23044.59734601  .00010744  00000-0  69154-3 0  9997,2 53794  53.2168 262.1690 0000721  89.5633 270.5442 15.08868539 23793,6917.793,95.436,540.157,539.159,0.0
53794.0,STARLINK-4730,PAYLOAD,2023-02-13 23:52:28,15.08885244,0.0001025,53.2157,260.3854,80.8573,279.2535,0.0008501,0.00013284,0.0,0 STARLINK-4730,1 53794U 22111X   23044.99477270  .00013284  00000-0  85010-3 0  9998,2 53794  53.2157 260.3854 0001025  80.8573 279.2535 15.08885244 23856,6917.742,95.435,540.316,538.898,0.0
53794.0,STARLINK-4730,PAYLOAD,2023-02-14 07:49:24,15.08854464,8.08e-05,53.2176,258.8983,94.554,265.5544,0.00011588,1.558e-05,0.0,0 STARLINK-4730,1 53794U 22111X   23045.32597805  .00001558  00000-0  11588-3 0  9993,2 53794  53.2176 258.8983 0000808  94.5540 265.5544 15.08854464 23900,6917.836,95.437,540.26,539.142,0.0
53794.0,STARLINK-4730,PAYLOAD,2023-02-14 14:10:58,15.08826105,6.9e-05,53.2178,257.7068,121.3615,238.7445,-0.0003416,-5.718e-05,0.0,0 STARLINK-4730,1 53794U 22111X   23045.59094937 -.00005718  00000-0 -34160-3 0  9995,2 53794  53.2178 257.7068 0000690 121.3615 238.7445 15.08826105 24741,6917.923,95.438,540.265,539.311,0.0
53794.0,STARLINK-4730,PAYLOAD,2023-02-14 22:07:53,15.08834525,0.000127,53.2161,256.2229,88.9668,271.1469,-0.00041961,-6.959e-05,0.0,0 STARLINK-4730,1 53794U 22111X   23045.92214700 -.00006959  00000-0 -41961-3 0  9999,2 53794  53.2161 256.2229 0001270  88.9668 271.1469 15.08834525 23995,6917.897,95.438,540.641,538.884,0.0
53794.0,STARLINK-4730,PAYLOAD,2023-02-15 14:01:44,15.08844255,0.0001384,53.2157,253.2492,89.1958,270.9193,-7.4155e-05,-1.468e-05,0.0,0 STARLINK-4730,1 53794U 22111X   23046.58454487 -.00001468  00000-0 -74155-4 0  9992,2 53794  53.2157 253.2492 0001384  89.1958 270.9193 15.08844255 24094,6917.867,95.437,540.69,538.775,0.0
53794.0,STARLINK-4730,PAYLOAD,2023-02-15 20:23:17,15.08848793,0.0001349,53.2156,252.0598,90.176,269.9387,0.00044986,6.881e-05,0.0,0 STARLINK-4730,1 53794U 22111X   23046.84950607  .00006881  00000-0  44986-3 0  9996,2 53794  53.2156 252.0598 0001349  90.1760 269.9387 15.08848793 24938,6917.854,95.437,540.652,538.785,0.0
53794.0,STARLINK-4730,PAYLOAD,2023-02-16 13:52:32,15.08845199,0.0001342,53.216,248.7876,104.5896,255.5245,0.00043523,6.647e-05,0.0,0 STARLINK-4730,1 53794U 22111X   23047.57815060  .00006647  00000-0  43523-3 0  9996,2 53794  53.2160 248.7876 0001342 104.5896 255.5245 15.08845199 24242,6917.864,95.437,540.658,538.801,0.0
53794.0,STARLINK-4730,PAYLOAD,2023-02-16 21:49:27,15.08853173,0.0001194,53.2179,247.3025,96.8708,263.242,0.00048011,7.364e-05,0.0,0 STARLINK-4730,1 53794U 22111X   23047.90934577  .00007364  00000-0  48011-3 0  9992,2 53794  53.2179 247.3025 0001194  96.8708 263.2420 15.08853173 25099,6917.84,95.437,540.531,538.879,0.0
53794.0,STARLINK-4730,PAYLOAD,2023-02-17 12:07:56,15.08830048,9.15e-05,53.2175,244.6259,89.3589,270.7508,-0.00016618,-2.931e-05,0.0,0 STARLINK-4730,1 53794U 22111X   23048.50551121 -.00002931  00000-0 -16618-3 0  9994,2 53794  53.2175 244.6259 0000915  89.3589 270.7508 15.08830048 24385,6917.911,95.438,540.409,539.143,0.0
53794.0,STARLINK-4730,PAYLOAD,2023-02-17 20:04:51,15.08835611,0.0001162,53.2188,243.14,95.1809,264.9315,7.9891e-05,9.84e-06,0.0,0 STARLINK-4730,1 53794U 22111X   23048.83671198  .00000984  00000-0  79891-4 0  9994,2 53794  53.2188 243.1400 0001162  95.1809 264.9315 15.08835611 25233,6917.894,95.438,540.563,538.955,0.0
53794.0,STARLINK-4730,PAYLOAD,2023-02-18 13:34:07,15.08808737,8e-05,53.2183,239.8671,104.1877,255.9204,-0.00051333,-8.441e-05,0.0,0 STARLINK-4730,1 53794U 22111X   23049.56536388 -.00008441  00000-0 -51333-3 0  9994,2 53794  53.2183 239.8671 0000800 104.1877 255.9204 15.08808737 25342,6917.976,95.44,540.394,539.288,0.0
53794.0,STARLINK-4730,PAYLOAD,2023-02-19 05:27:59,15.08830353,0.0001008,53.2151,236.8934,100.1892,259.9214,0.00058096,8.968e-05,0.0,0 STARLINK-4730,1 53794U 22111X   23050.22777282  .00008968  00000-0  58096-3 0  9994,2 53794  53.2151 236.8934 0001008 100.1892 259.9214 15.08830353 24646,6917.91,95.438,540.472,539.078,0.0
53794.0,STARLINK-4730,PAYLOAD,2023-02-19 11:49:32,15.08836249,0.0001026,53.2172,235.706,98.7487,261.3621,0.00050396,7.741e-05,0.0,0 STARLINK-4730,1 53794U 22111X   23050.49273333  .00007741  00000-0  50396-3 0  9994,2 53794  53.2172 235.7060 0001026  98.7487 261.3621 15.08836249 25481,6917.892,95.438,540.467,539.047,0.0
53794.0,STARLINK-4730,PAYLOAD,2023-02-20 11:40:18,15.08858162,0.0001119,53.2166,231.2439,96.0369,264.0751,0.00071657,0.0001114,0.0,0 STARLINK-4730,1 53794U 22111X   23051.48632709  .00011140  00000-0  71657-3 0  9991,2 53794  53.2166 231.2439 0001119  96.0369 264.0751 15.08858162 24838,6917.825,95.436,540.464,538.916,0.0
53794.0,STARLINK-4730,PAYLOAD,2023-02-21 11:31:04,15.08859277,0.0001429,53.2177,226.7848,82.3716,277.7439,0.00019352,2.795e-05,0.0,0 STARLINK-4730,1 53794U 22111X   23052.47991515  .00002795  00000-0  19352-3 0  9994,2 53794  53.2177 226.7848 0001429  82.3716 277.7439 15.08859277 24989,6917.821,95.436,540.675,538.698,0.0
53794.0,STARLINK-4730,PAYLOAD,2023-02-21 21:03:23,15.088589,0.0001341,53.2169,224.9986,86.9607,273.1538,0.00019648,2.842e-05,0.0,0 STARLINK-4730,1 53794U 22111X   23052.87735184  .00002842  00000-0  19648-3 0  9997,2 53794  53.2169 224.9986 0001341  86.9607 273.1538 15.08858900 25843,6917.823,95.436,540.615,538.76,0.0
53794.0,STARLINK-4730,PAYLOAD,2023-02-22 11:21:51,15.08845583,0.0001295,53.2171,222.3225,86.6872,273.4268,-3.0575e-05,-7.75e-06,0.0,0 STARLINK-4730,1 53794U 22111X   23053.47351198 -.00000775  00000-0 -30575-4 0  9991,2 53794  53.2171 222.3225 0001295  86.6872 273.4268 15.08845583 25131,6917.863,95.437,540.624,538.832,0.0
53794.0,STARLINK-4730,PAYLOAD,2023-02-22 17:43:23,15.0884807,0.0001435,53.2171,221.1335,83.524,276.5916,0.00012579,1.715e-05,0.0,0 STARLINK-4730,1 53794U 22111X   23053.73847140  .00001715  00000-0  12579-3 0  9993,2 53794  53.2171 221.1335 0001435  83.5240 276.5916 15.08848070 25971,6917.856,95.437,540.713,538.728,0.0
53794.0,STARLINK-4730,PAYLOAD,2023-02-23 12:48:01,15.08842674,0.0001326,53.2155,217.5648,81.2876,278.8266,0.00012817,1.753e-05,0.0,0 STARLINK-4730,1 53794U 22111X   23054.53335416  .00001753  00000-0  12817-3 0  9997,2 53794  53.2155 217.5648 0001326  81.2876 278.8266 15.08842674 25290,6917.872,95.437,540.655,538.82,0.0
53794.0,STARLINK-4730,PAYLOAD,2023-02-23 17:34:10,15.08848329,0.0001223,53.2166,216.6731,82.8342,277.2789,0.00019764,2.86e-05,0.0,0 STARLINK-4730,1 53794U 22111X   23054.73207175  .00002860  00000-0  19764-3 0  9997,2 53794  53.2166 216.6731 0001223  82.8342 277.2789 15.08848329 26125,6917.855,95.437,540.566,538.874,0.0
